0 TERRIERS
1 25735U 99026A   13282.57795277  .00005429  00000-0  18619-3 0  9856
2 25735 097.0827 104.4752 0005390 204.8522 196.1470 15.30547875799154
0 TERRIERS
1 25735U 99026A   13283.82169135  .00006563  00000-0  22450-3 0  9862
2 25735 097.0827 105.6622 0005501 199.9054 209.6347 15.30558710799345
0 TERRIERS
1 25735U 99026A   13285.33827610  .00004723  00000-0  16217-3 0  9870
2 25735 097.0823 107.1095 0005626 193.9174 286.6380 15.30573702799572
0 TERRIERS
1 25735U 99026A   13286.50363819  .00005118  00000-0  17549-3 0  9885
2 25735 097.0819 108.2217 0005750 189.7879 227.8427 15.30583360799758
0 TERRIERS
1 25735U 99026A   13288.08318891  .00007675  00000-0  26172-3 0  9893
2 25735 097.0814 109.7292 0005904 183.8325 291.6717 15.30602221799999
0 TERRIERS
1 25735U 99026A   13289.13324721  .00006473  00000-0  22105-3 0  9908
2 25735 097.0810 110.7314 0006051 180.2229 317.5481 15.30615085800159
0 TERRIERS
1 25735U 99026A   13290.37390200  .00007389  00000-0  25188-3 0  9913
2 25735 097.0809 111.9154 0006198 176.0405 313.5951 15.30625445800343
0 TERRIERS
1 25735U 99026A   13291.46724182  .00006050  00000-0  20660-3 0  9929
2 25735 097.0810 112.9590 0006295 172.2474 218.0819 15.30640351800516
0 TERRIERS
1 25735U 99026A   13292.58071939  .00005854  00000-0  19990-3 0  9934
2 25735 097.0812 114.0216 0006404 168.5445 233.4292 15.30652265800685
0 TERRIERS
1 25735U 99026A   13293.82579986  .00007100  00000-0  24184-3 0  9945
2 25735 097.0816 115.2100 0006512 164.4456 253.9323 15.30663041800878
0 TERRIERS
1 25735U 99026A   13295.08391552  .00006264  00000-0  21356-3 0  9955
2 25735 097.0819 116.4108 0006643 160.0636 346.5522 15.30678553801065
0 TERRIERS
1 25735U 99026A   13296.12765519  .00006520  00000-0  22208-3 0  9962
2 25735 097.0820 117.4071 0006728 156.7987 337.5737 15.30690621801228
